start=new Date('2022-02-14T00:00:00.000Z').valueOf();
sats=[{"APOAPSIS":"548.093","OBJECT_NAME":"STARLINK-2017","MEAN_ANOMALY":"269.0091","MEAN_MOTION_DDOT":"0.0000000000000","MEAN_MOTION_DOT":"-0.00003179","OBJECT_TYPE":"PAYLOAD","REF_FRAME":"TEME","TLE_LINE2":"2 47351  53.0523 208.7063 0001216  91.1038 269.0091 15.06387968 59754","EPHEMERIS_TYPE":"0","ARG_OF_PERICENTER":"91.1038","REV_AT_EPOCH":"5975","PERIAPSIS":"546.408","INCLINATION":"53.0523","SEMIMAJOR_AXIS":"6925.385","RA_OF_ASC_NODE":"208.7063","ELEMENT_SET_NO":"999","DECAY_DATE":null,"EPOCH":"2022-02-13T12:56:18.087936","BSTAR":"-0.00019466000000","ECCENTRICITY":"0.00012160","GP_ID":"195893986","CLASSIFICATION_TYPE":"U","TIME_SYSTEM":"UTC","RCS_SIZE":"LARGE","CENTER_NAME":"EARTH","LAUNCH_DATE":"2021-01-20","TLE_LINE1":"1 47351U 21005C   22044.53909824 -.00003179  00000-0 -19466-3 0  9991","MEAN_ELEMENT_THEORY":"SGP4","PERIOD":"95.593","OBJECT_ID":"2021-005C","SITE":"AFETR","FILE":"3299685","NORAD_CAT_ID":"47351","COUNTRY_CODE":"US","MEAN_MOTION":"15.06387968"},{"MEAN_ANOMALY":"304.3918","MEAN_MOTION_DDOT":"0.0000000000000","MEAN_MOTION_DOT":"-0.00001451","OBJECT_TYPE":"PAYLOAD","APOAPSIS":"548.318","OBJECT_NAME":"STARLINK-2034","REV_AT_EPOCH":"5989","PERIAPSIS":"546.031","REF_FRAME":"TEME","ARG_OF_PERICENTER":"55.7228","EPHEMERIS_TYPE":"0","TLE_LINE2":"2 47352  53.0550 247.4456 0001651  55.7228 304.3918 15.06412714 59895","GP_ID":"195899266","ECCENTRICITY":"0.00016510","BSTAR":"-0.00007848400000","EPOCH":"2022-02-13T19:44:59.952768","TIME_SYSTEM":"UTC","CLASSIFICATION_TYPE":"U","ELEMENT_SET_NO":"999","SEMIMAJOR_AXIS":"6925.310","RA_OF_ASC_NODE":"247.4456","INCLINATION":"53.0550","DECAY_DATE":null,"SITE":"AFETR","OBJECT_ID":"2021-005D","PERIOD":"95.591","COUNTRY_CODE":"US","MEAN_MOTION":"15.06412714","NORAD_CAT_ID":"47352","FILE":"3299762","RCS_SIZE":"LARGE","MEAN_ELEMENT_THEORY":"SGP4","TLE_LINE1":"1 47352U 21005D   22044.82291612 -.00001451  00000-0 -78484-4 0  9990","LAUNCH_DATE":"2021-01-20","CENTER_NAME":"EARTH"},{"REV_AT_EPOCH":"6065","PERIAPSIS":"546.195","REF_FRAME":"TEME","TLE_LINE2":"2 47353  53.0552 192.9384 0001512  69.7950 290.3201 15.06390796 60655","ARG_OF_PERICENTER":"69.7950","EPHEMERIS_TYPE":"0","MEAN_MOTION_DDOT":"0.0000000000000","MEAN_MOTION_DOT":"-0.00000336","MEAN_ANOMALY":"290.3201","OBJECT_TYPE":"PAYLOAD","APOAPSIS":"548.289","OBJECT_NAME":"STARLINK-2045","PERIOD":"95.593","SITE":"AFETR","OBJECT_ID":"2021-005E","FILE":"3299757","COUNTRY_CODE":"US","MEAN_MOTION":"15.06390796","NORAD_CAT_ID":"47353","RCS_SIZE":"LARGE","CENTER_NAME":"EARTH","LAUNCH_DATE":"2021-01-20","MEAN_ELEMENT_THEORY":"SGP4","TLE_LINE1":"1 47353U 21005E   22044.71187899 -.00000336  00000-0 -36387-5 0  9998","BSTAR":"-0.00000363870000","EPOCH":"2022-02-13T17:05:06.344736","GP_ID":"195899155","ECCENTRICITY":"0.00015120","TIME_SYSTEM":"UTC","CLASSIFICATION_TYPE":"U","INCLINATION":"53.0552","SEMIMAJOR_AXIS":"6925.377","RA_OF_ASC_NODE":"192.9384","ELEMENT_SET_NO":"999","DECAY_DATE":null},{"TLE_LINE2":"2 47354  53.0524 214.0831 0001556  73.7395 286.3765 15.06395530 59675","EPHEMERIS_TYPE":"0","ARG_OF_PERICENTER":"73.7395","REF_FRAME":"TEME","PERIAPSIS":"546.150","REV_AT_EPOCH":"5967","OBJECT_NAME":"STARLINK-2046","APOAPSIS":"548.305","OBJECT_TYPE":"PAYLOAD","MEAN_MOTION_DDOT":"0.0000000000000","MEAN_ANOMALY":"286.3765","MEAN_MOTION_DOT":"-0.00001013","CENTER_NAME":"EARTH","LAUNCH_DATE":"2021-01-20","MEAN_ELEMENT_THEORY":"SGP4","TLE_LINE1":"1 47354U 21005F   22044.45939470 -.00001013  00000-0 -49101-4 0  9990","RCS_SIZE":"LARGE","FILE":"3299685","COUNTRY_CODE":"US","NORAD_CAT_ID":"47354","MEAN_MOTION":"15.06395530","PERIOD":"95.592","OBJECT_ID":"2021-005F","SITE":"AFETR","DECAY_DATE":null,"INCLINATION":"53.0524","ELEMENT_SET_NO":"999","SEMIMAJOR_AXIS":"6925.362","RA_OF_ASC_NODE":"214.0831","CLASSIFICATION_TYPE":"U","TIME_SYSTEM":"UTC","EPOCH":"2022-02-13T11:01:31.702080","BSTAR":"-0.00004910100000","ECCENTRICITY":"0.00015560","GP_ID":"195893248"},{"MEAN_MOTION_DDOT":"0.0000000000000","MEAN_ANOMALY":"286.2582","MEAN_MOTION_DOT":"-0.00001398","OBJECT_TYPE":"PAYLOAD","APOAPSIS":"548.513","OBJECT_NAME":"STARLINK-2047","PERIAPSIS":"546.027","REV_AT_EPOCH":"5987","REF_FRAME":"TEME","TLE_LINE2":"2 47355  53.0432 199.3703 0001795  73.8605 286.2582 15.06381606 59874","ARG_OF_PERICENTER":"73.8605","EPHEMERIS_TYPE":"0","BSTAR":"-0.00007497400000","EPOCH":"2022-02-13T09:57:10.510272","ECCENTRICITY":"0.00017950","GP_ID":"195894486","TIME_SYSTEM":"UTC","CLASSIFICATION_TYPE":"U","INCLINATION":"53.0432","SEMIMAJOR_AXIS":"6925.405","RA_OF_ASC_NODE":"199.3703","ELEMENT_SET_NO":"999","DECAY_DATE":null,"PERIOD":"95.593","SITE":"AFETR","OBJECT_ID":"2021-005G","FILE":"3299685","COUNTRY_CODE":"US","MEAN_MOTION":"15.06381606","NORAD_CAT_ID":"47355","RCS_SIZE":"LARGE","LAUNCH_DATE":"2021-01-20","CENTER_NAME":"EARTH","MEAN_ELEMENT_THEORY":"SGP4","TLE_LINE1":"1 47355U 21005G   22044.41470498 -.00001398  00000-0 -74974-4 0  9999"},{"MEAN_MOTION_DOT":"-0.00001539","MEAN_MOTION_DDOT":"0.0000000000000","MEAN_ANOMALY":"286.5906","OBJECT_TYPE":"PAYLOAD","APOAPSIS":"548.220","OBJECT_NAME":"STARLINK-2049","PERIAPSIS":"546.205","REV_AT_EPOCH":"6060","REF_FRAME":"TEME","TLE_LINE2":"2 47356  53.0548 217.5918 0001455  73.5243 286.5906 15.06400245 60609","ARG_OF_PERICENTER":"73.5243","EPHEMERIS_TYPE":"0","BSTAR":"-0.00008445300000","EPOCH":"2022-02-13T19:01:13.810080","GP_ID":"195899861","ECCENTRICITY":"0.00014550","TIME_SYSTEM":"UTC","CLASSIFICATION_TYPE":"U","INCLINATION":"53.0548","SEMIMAJOR_AXIS":"6925.348","ELEMENT_SET_NO":"999","RA_OF_ASC_NODE":"217.5918","DECAY_DATE":null,"PERIOD":"95.592","SITE":"AFETR","OBJECT_ID":"2021-005H","FILE":"3299767","MEAN_MOTION":"15.06400245","COUNTRY_CODE":"US","NORAD_CAT_ID":"47356","RCS_SIZE":"LARGE","LAUNCH_DATE":"2021-01-20","CENTER_NAME":"EARTH","MEAN_ELEMENT_THEORY":"SGP4","TLE_LINE1":"1 47356U 21005H   22044.79252095 -.00001539  00000-0 -84453-4 0  9992"},{"EPHEMERIS_TYPE":"0","ARG_OF_PERICENTER":"68.3506","TLE_LINE2":"2 47357  53.0519 249.9175 0001508  68.3506 291.7644 15.06396491 59157","REF_FRAME":"TEME","PERIAPSIS":"546.180","REV_AT_EPOCH":"5915","OBJECT_NAME":"STARLINK-2050","APOAPSIS":"548.269","OBJECT_TYPE":"PAYLOAD","MEAN_MOTION_DOT":"-0.00000944","MEAN_MOTION_DDOT":"0.0000000000000","MEAN_ANOMALY":"291.7644","TLE_LINE1":"1 47357U 21005J   22044.27002849 -.00000944  00000-0 -44495-4 0  9997","MEAN_ELEMENT_THEORY":"SGP4","CENTER_NAME":"EARTH","LAUNCH_DATE":"2021-01-20","RCS_SIZE":"LARGE","COUNTRY_CODE":"US","MEAN_MOTION":"15.06396491","NORAD_CAT_ID":"47357","FILE":"3299685","OBJECT_ID":"2021-005J","SITE":"AFETR","PERIOD":"95.592","DECAY_DATE":null,"RA_OF_ASC_NODE":"249.9175","SEMIMAJOR_AXIS":"6925.359","ELEMENT_SET_NO":"999","INCLINATION":"53.0519","CLASSIFICATION_TYPE":"U","TIME_SYSTEM":"UTC","GP_ID":"195893498","ECCENTRICITY":"0.00015080","EPOCH":"2022-02-13T06:28:50.461536","BSTAR":"-0.00004449500000"},{"RCS_SIZE":"LARGE","CENTER_NAME":"EARTH","LAUNCH_DATE":"2021-01-20","TLE_LINE1":"1 47358U 21005K   22044.53818718  .00000634  00000-0  61471-4 0  9994","MEAN_ELEMENT_THEORY":"SGP4","PERIOD":"95.591","OBJECT_ID":"2021-005K","SITE":"AFETR","FILE":"3299685","MEAN_MOTION":"15.06413149","COUNTRY_CODE":"US","NORAD_CAT_ID":"47358","INCLINATION":"53.0532","SEMIMAJOR_AXIS":"6925.308","ELEMENT_SET_NO":"999","RA_OF_ASC_NODE":"218.7236","DECAY_DATE":null,"EPOCH":"2022-02-13T12:54:59.372352","BSTAR":"0.00006147100000","GP_ID":"195893748","ECCENTRICITY":"0.00015270","CLASSIFICATION_TYPE":"U","TIME_SYSTEM":"UTC","REF_FRAME":"TEME","TLE_LINE2":"2 47358  53.0532 218.7236 0001527  76.0053 284.1105 15.06413149 59618","EPHEMERIS_TYPE":"0","ARG_OF_PERICENTER":"76.0053","PERIAPSIS":"546.116","REV_AT_EPOCH":"5961","APOAPSIS":"548.231","OBJECT_NAME":"STARLINK-2055","MEAN_ANOMALY":"284.1105","MEAN_MOTION_DDOT":"0.0000000000000","MEAN_MOTION_DOT":"0.00000634","OBJECT_TYPE":"PAYLOAD"},{"RCS_SIZE":"LARGE","LAUNCH_DATE":"2021-01-20","CENTER_NAME":"EARTH","TLE_LINE1":"1 47359U 21005L   22044.54879190 -.00002264  00000-0 -13312-3 0  9990","MEAN_ELEMENT_THEORY":"SGP4","PERIOD":"95.592","OBJECT_ID":"2021-005L","SITE":"AFETR","FILE":"3299685","COUNTRY_CODE":"US","MEAN_MOTION":"15.06399307","NORAD_CAT_ID":"47359","INCLINATION":"53.0522","RA_OF_ASC_NODE":"243.6734","SEMIMAJOR_AXIS":"6925.351","ELEMENT_SET_NO":"999","DECAY_DATE":null,"EPOCH":"2022-02-13T13:10:15.620160","BSTAR":"-0.00013312000000","GP_ID":"195893987","ECCENTRICITY":"0.00016180","CLASSIFICATION_TYPE":"U","TIME_SYSTEM":"UTC","REF_FRAME":"TEME","TLE_LINE2":"2 47359  53.0522 243.6734 0001618  75.5883 284.5285 15.06399307 59267","EPHEMERIS_TYPE":"0","ARG_OF_PERICENTER":"75.5883","REV_AT_EPOCH":"5926","PERIAPSIS":"546.095","APOAPSIS":"548.336","OBJECT_NAME":"STARLINK-2069","MEAN_MOTION_DOT":"-0.00002264","MEAN_MOTION_DDOT":"0.0000000000000","MEAN_ANOMALY":"284.5285","OBJECT_TYPE":"PAYLOAD"},{"RCS_SIZE":"LARGE","LAUNCH_DATE":"2021-01-20","CENTER_NAME":"EARTH","TLE_LINE1":"1 47360U 21005M   22044.75427368 -.00001297  00000-0 -68220-4 0  9995","MEAN_ELEMENT_THEORY":"SGP4","PERIOD":"95.593","OBJECT_ID":"2021-005M","SITE":"AFETR","FILE":"3299767","NORAD_CAT_ID":"47360","COUNTRY_CODE":"US","MEAN_MOTION":"15.06387002","INCLINATION":"53.0546","RA_OF_ASC_NODE":"212.7601","SEMIMAJOR_AXIS":"6925.388","ELEMENT_SET_NO":"999","DECAY_DATE":null,"EPOCH":"2022-02-13T18:06:09.245952","BSTAR":"-0.00006822000000","GP_ID":"195899359","ECCENTRICITY":"0.00015560","CLASSIFICATION_TYPE":"U","TIME_SYSTEM":"UTC","REF_FRAME":"TEME","TLE_LINE2":"2 47360  53.0546 212.7601 0001556  70.9140 289.2017 15.06387002 59726","EPHEMERIS_TYPE":"0","ARG_OF_PERICENTER":"70.9140","REV_AT_EPOCH":"5972","PERIAPSIS":"546.176","APOAPSIS":"548.331","OBJECT_NAME":"STARLINK-2070","MEAN_ANOMALY":"289.2017","MEAN_MOTION_DDOT":"0.0000000000000","MEAN_MOTION_DOT":"-0.00001297","OBJECT_TYPE":"PAYLOAD"}];
